QIANFAN-17              
1 60395U 24140S   25297.70301708  .00000039  00000+0  41881-4 0  9992
2 60395  88.9743 304.5149 0014701 355.6998   4.4025 13.50970412 61518
QIANFAN-18              
1 60396U 24140T   25297.75648257  .00000103  00000+0  14083-3 0  9996
2 60396  88.9735 304.0464 0013424 338.0461  22.0113 13.50970426 60918
QIANFAN-19              
1 61552U 24185A   25297.76512951  .00000846  00000+0  43637-3 0  9993
2 61552  88.9782  83.5471 0009083 100.5307 259.6903 14.14216010 62740
QIANFAN-20              
1 61553U 24185B   25297.75029162  .00000730  00000+0  41573-3 0  9999
2 61553  88.9780  83.8234 0007247 130.4953 229.6864 14.08765628 62591
QIANFAN-21              
1 61554U 24185C   25297.79340514  .00001122  00000+0  49648-3 0  9998
2 61554  88.9698  82.7063 0011596 153.1902 206.9891 14.22502322 63018
QIANFAN-22              
1 61555U 24185D   25297.77995925  .00000296  00000+0  24464-3 0  9999
2 61555  88.9764  84.6049 0007992 134.5267 225.6558 13.86276238 62155
QIANFAN-23              
1 61556U 24185E   25297.73890264  .00000906  00000+0  45052-3 0  9990
2 61556  88.9775  83.3828 0009809 110.2729 249.9515 14.16214230 62815
QIANFAN-24              
1 61557U 24185F   25297.76718023  .00000960  00000+0  41401-3 0  9990
2 61557  88.9756  82.8646 0011660  97.4810 262.7707 14.23709869 63050
