<?xml version="1.0" encoding="UTF-8"?>
<ndm xmlns:xsi="http://www.w3.org/2001/XMLSchema-instance" xsi:noNamespaceSchemaLocation="https://sanaregistry.org/r/ndmxml_unqualified/ndmxml-2.0.0-master-2.0.xsd">
<omm id="CCSDS_OMM_VERS" version="2.0">
<header><CREATION_DATE/><ORIGINATOR/></header><body><segment><metadata><OBJECT_NAME>QIANFAN-17</OBJECT_NAME><OBJECT_ID>2024-140S</OBJECT_ID><CENTER_NAME>EARTH</CENTER_NAME><REF_FRAME>TEME</REF_FRAME><TIME_SYSTEM>UTC</TIME_SYSTEM><MEAN_ELEMENT_THEORY>SGP4</MEAN_ELEMENT_THEORY></metadata><data><meanElements><EPOCH>2025-10-24T16:52:20.675712</EPOCH><MEAN_MOTION>13.50970412</MEAN_MOTION><ECCENTRICITY>.0014701</ECCENTRICITY><INCLINATION>88.9743</INCLINATION><RA_OF_ASC_NODE>304.5149</RA_OF_ASC_NODE><ARG_OF_PERICENTER>355.6998</ARG_OF_PERICENTER><MEAN_ANOMALY>4.4025</MEAN_ANOMALY></meanElements><tleParameters><EPHEMERIS_TYPE>0</EPHEMERIS_TYPE><CLASSIFICATION_TYPE>U</CLASSIFICATION_TYPE><NORAD_CAT_ID>60395</NORAD_CAT_ID><ELEMENT_SET_NO>999</ELEMENT_SET_NO><REV_AT_EPOCH>6151</REV_AT_EPOCH><BSTAR>.41881E-4</BSTAR><MEAN_MOTION_DOT>.39E-6</MEAN_MOTION_DOT><MEAN_MOTION_DDOT>0</MEAN_MOTION_DDOT></tleParameters></data></segment></body></omm>
<omm id="CCSDS_OMM_VERS" version="2.0">
<header><CREATION_DATE/><ORIGINATOR/></header><body><segment><metadata><OBJECT_NAME>QIANFAN-18</OBJECT_NAME><OBJECT_ID>2024-140T</OBJECT_ID><CENTER_NAME>EARTH</CENTER_NAME><REF_FRAME>TEME</REF_FRAME><TIME_SYSTEM>UTC</TIME_SYSTEM><MEAN_ELEMENT_THEORY>SGP4</MEAN_ELEMENT_THEORY></metadata><data><meanElements><EPOCH>2025-10-24T18:09:20.094048</EPOCH><MEAN_MOTION>13.50970426</MEAN_MOTION><ECCENTRICITY>.0013424</ECCENTRICITY><INCLINATION>88.9735</INCLINATION><RA_OF_ASC_NODE>304.0464</RA_OF_ASC_NODE><ARG_OF_PERICENTER>338.0461</ARG_OF_PERICENTER><MEAN_ANOMALY>22.0113</MEAN_ANOMALY></meanElements><tleParameters><EPHEMERIS_TYPE>0</EPHEMERIS_TYPE><CLASSIFICATION_TYPE>U</CLASSIFICATION_TYPE><NORAD_CAT_ID>60396</NORAD_CAT_ID><ELEMENT_SET_NO>999</ELEMENT_SET_NO><REV_AT_EPOCH>6091</REV_AT_EPOCH><BSTAR>.14083E-3</BSTAR><MEAN_MOTION_DOT>.103E-5</MEAN_MOTION_DOT><MEAN_MOTION_DDOT>0</MEAN_MOTION_DDOT></tleParameters></data></segment></body></omm>
<omm id="CCSDS_OMM_VERS" version="2.0">
<header><CREATION_DATE/><ORIGINATOR/></header><body><segment><metadata><OBJECT_NAME>QIANFAN-19</OBJECT_NAME><OBJECT_ID>2024-185A</OBJECT_ID><CENTER_NAME>EARTH</CENTER_NAME><REF_FRAME>TEME</REF_FRAME><TIME_SYSTEM>UTC</TIME_SYSTEM><MEAN_ELEMENT_THEORY>SGP4</MEAN_ELEMENT_THEORY></metadata><data><meanElements><EPOCH>2025-10-24T18:21:47.189664</EPOCH><MEAN_MOTION>14.14216010</MEAN_MOTION><ECCENTRICITY>.0009083</ECCENTRICITY><INCLINATION>88.9782</INCLINATION><RA_OF_ASC_NODE>83.5471</RA_OF_ASC_NODE><ARG_OF_PERICENTER>100.5307</ARG_OF_PERICENTER><MEAN_ANOMALY>259.6903</MEAN_ANOMALY></meanElements><tleParameters><EPHEMERIS_TYPE>0</EPHEMERIS_TYPE><CLASSIFICATION_TYPE>U</CLASSIFICATION_TYPE><NORAD_CAT_ID>61552</NORAD_CAT_ID><ELEMENT_SET_NO>999</ELEMENT_SET_NO><REV_AT_EPOCH>6274</REV_AT_EPOCH><BSTAR>.43637E-3</BSTAR><MEAN_MOTION_DOT>.846E-5</MEAN_MOTION_DOT><MEAN_MOTION_DDOT>0</MEAN_MOTION_DDOT></tleParameters></data></segment></body></omm>
<omm id="CCSDS_OMM_VERS" version="2.0">
<header><CREATION_DATE/><ORIGINATOR/></header><body><segment><metadata><OBJECT_NAME>QIANFAN-20</OBJECT_NAME><OBJECT_ID>2024-185B</OBJECT_ID><CENTER_NAME>EARTH</CENTER_NAME><REF_FRAME>TEME</REF_FRAME><TIME_SYSTEM>UTC</TIME_SYSTEM><MEAN_ELEMENT_THEORY>SGP4</MEAN_ELEMENT_THEORY></metadata><data><meanElements><EPOCH>2025-10-24T18:00:25.195968</EPOCH><MEAN_MOTION>14.08765628</MEAN_MOTION><ECCENTRICITY>.0007247</ECCENTRICITY><INCLINATION>88.9780</INCLINATION><RA_OF_ASC_NODE>83.8234</RA_OF_ASC_NODE><ARG_OF_PERICENTER>130.4953</ARG_OF_PERICENTER><MEAN_ANOMALY>229.6864</MEAN_ANOMALY></meanElements><tleParameters><EPHEMERIS_TYPE>0</EPHEMERIS_TYPE><CLASSIFICATION_TYPE>U</CLASSIFICATION_TYPE><NORAD_CAT_ID>61553</NORAD_CAT_ID><ELEMENT_SET_NO>999</ELEMENT_SET_NO><REV_AT_EPOCH>6259</REV_AT_EPOCH><BSTAR>.41573E-3</BSTAR><MEAN_MOTION_DOT>.73E-5</MEAN_MOTION_DOT><MEAN_MOTION_DDOT>0</MEAN_MOTION_DDOT></tleParameters></data></segment></body></omm>
<omm id="CCSDS_OMM_VERS" version="2.0">
<header><CREATION_DATE/><ORIGINATOR/></header><body><segment><metadata><OBJECT_NAME>QIANFAN-21</OBJECT_NAME><OBJECT_ID>2024-185C</OBJECT_ID><CENTER_NAME>EARTH</CENTER_NAME><REF_FRAME>TEME</REF_FRAME><TIME_SYSTEM>UTC</TIME_SYSTEM><MEAN_ELEMENT_THEORY>SGP4</MEAN_ELEMENT_THEORY></metadata><data><meanElements><EPOCH>2025-10-24T19:02:30.204096</EPOCH><MEAN_MOTION>14.22502322</MEAN_MOTION><ECCENTRICITY>.0011596</ECCENTRICITY><INCLINATION>88.9698</INCLINATION><RA_OF_ASC_NODE>82.7063</RA_OF_ASC_NODE><ARG_OF_PERICENTER>153.1902</ARG_OF_PERICENTER><MEAN_ANOMALY>206.9891</MEAN_ANOMALY></meanElements><tleParameters><EPHEMERIS_TYPE>0</EPHEMERIS_TYPE><CLASSIFICATION_TYPE>U</CLASSIFICATION_TYPE><NORAD_CAT_ID>61554</NORAD_CAT_ID><ELEMENT_SET_NO>999</ELEMENT_SET_NO><REV_AT_EPOCH>6301</REV_AT_EPOCH><BSTAR>.49648E-3</BSTAR><MEAN_MOTION_DOT>.1122E-4</MEAN_MOTION_DOT><MEAN_MOTION_DDOT>0</MEAN_MOTION_DDOT></tleParameters></data></segment></body></omm>
<omm id="CCSDS_OMM_VERS" version="2.0">
<header><CREATION_DATE/><ORIGINATOR/></header><body><segment><metadata><OBJECT_NAME>QIANFAN-22</OBJECT_NAME><OBJECT_ID>2024-185D</OBJECT_ID><CENTER_NAME>EARTH</CENTER_NAME><REF_FRAME>TEME</REF_FRAME><TIME_SYSTEM>UTC</TIME_SYSTEM><MEAN_ELEMENT_THEORY>SGP4</MEAN_ELEMENT_THEORY></metadata><data><meanElements><EPOCH>2025-10-24T18:43:08.479200</EPOCH><MEAN_MOTION>13.86276238</MEAN_MOTION><ECCENTRICITY>.0007992</ECCENTRICITY><INCLINATION>88.9764</INCLINATION><RA_OF_ASC_NODE>84.6049</RA_OF_ASC_NODE><ARG_OF_PERICENTER>134.5267</ARG_OF_PERICENTER><MEAN_ANOMALY>225.6558</MEAN_ANOMALY></meanElements><tleParameters><EPHEMERIS_TYPE>0</EPHEMERIS_TYPE><CLASSIFICATION_TYPE>U</CLASSIFICATION_TYPE><NORAD_CAT_ID>61555</NORAD_CAT_ID><ELEMENT_SET_NO>999</ELEMENT_SET_NO><REV_AT_EPOCH>6215</REV_AT_EPOCH><BSTAR>.24464E-3</BSTAR><MEAN_MOTION_DOT>.296E-5</MEAN_MOTION_DOT><MEAN_MOTION_DDOT>0</MEAN_MOTION_DDOT></tleParameters></data></segment></body></omm>
<omm id="CCSDS_OMM_VERS" version="2.0">
<header><CREATION_DATE/><ORIGINATOR/></header><body><segment><metadata><OBJECT_NAME>QIANFAN-23</OBJECT_NAME><OBJECT_ID>2024-185E</OBJECT_ID><CENTER_NAME>EARTH</CENTER_NAME><REF_FRAME>TEME</REF_FRAME><TIME_SYSTEM>UTC</TIME_SYSTEM><MEAN_ELEMENT_THEORY>SGP4</MEAN_ELEMENT_THEORY></metadata><data><meanElements><EPOCH>2025-10-24T17:44:01.188096</EPOCH><MEAN_MOTION>14.16214230</MEAN_MOTION><ECCENTRICITY>.0009809</ECCENTRICITY><INCLINATION>88.9775</INCLINATION><RA_OF_ASC_NODE>83.3828</RA_OF_ASC_NODE><ARG_OF_PERICENTER>110.2729</ARG_OF_PERICENTER><MEAN_ANOMALY>249.9515</MEAN_ANOMALY></meanElements><tleParameters><EPHEMERIS_TYPE>0</EPHEMERIS_TYPE><CLASSIFICATION_TYPE>U</CLASSIFICATION_TYPE><NORAD_CAT_ID>61556</NORAD_CAT_ID><ELEMENT_SET_NO>999</ELEMENT_SET_NO><REV_AT_EPOCH>6281</REV_AT_EPOCH><BSTAR>.45052E-3</BSTAR><MEAN_MOTION_DOT>.906E-5</MEAN_MOTION_DOT><MEAN_MOTION_DDOT>0</MEAN_MOTION_DDOT></tleParameters></data></segment></body></omm>
<omm id="CCSDS_OMM_VERS" version="2.0">
<header><CREATION_DATE/><ORIGINATOR/></header><body><segment><metadata><OBJECT_NAME>QIANFAN-24</OBJECT_NAME><OBJECT_ID>2024-185F</OBJECT_ID><CENTER_NAME>EARTH</CENTER_NAME><REF_FRAME>TEME</REF_FRAME><TIME_SYSTEM>UTC</TIME_SYSTEM><MEAN_ELEMENT_THEORY>SGP4</MEAN_ELEMENT_THEORY></metadata><data><meanElements><EPOCH>2025-10-24T18:24:44.371872</EPOCH><MEAN_MOTION>14.23709869</MEAN_MOTION><ECCENTRICITY>.001166</ECCENTRICITY><INCLINATION>88.9756</INCLINATION><RA_OF_ASC_NODE>82.8646</RA_OF_ASC_NODE><ARG_OF_PERICENTER>97.4810</ARG_OF_PERICENTER><MEAN_ANOMALY>262.7707</MEAN_ANOMALY></meanElements><tleParameters><EPHEMERIS_TYPE>0</EPHEMERIS_TYPE><CLASSIFICATION_TYPE>U</CLASSIFICATION_TYPE><NORAD_CAT_ID>61557</NORAD_CAT_ID><ELEMENT_SET_NO>999</ELEMENT_SET_NO><REV_AT_EPOCH>6305</REV_AT_EPOCH><BSTAR>.41401E-3</BSTAR><MEAN_MOTION_DOT>.96E-5</MEAN_MOTION_DOT><MEAN_MOTION_DDOT>0</MEAN_MOTION_DDOT></tleParameters></data></segment></body></omm>

</ndm>
